NORAD_CAT_ID,OBJECT_NAME,OBJECT_TYPE,EPOCH,MEAN_MOTION,ECCENTRICITY,INCLINATION,RA_OF_ASC_NODE,ARG_OF_PERICENTER,MEAN_ANOMALY,BSTAR,MEAN_MOTION_DOT,MEAN_MOTION_DDOT,TLE_LINE0,TLE_LINE1,TLE_LINE2,SEMIMAJOR_AXIS,PERIOD,APOGEE,PERIGEE,DECAYED
53776.0,STARLINK-4708,PAYLOAD,2023-01-07 11:19:54,15.088370199999998,0.0002123,53.2199,74.1942,33.4308,326.6818,1.587e-05,-3.6e-07,0.0,0 STARLINK-4708,1 53776U 22111D   23007.47215376 -.00000036  00000-0  15870-4 0  9997,2 53776  53.2199  74.1942 0002123  33.4308 326.6818 15.08837020 18114,6917.889,95.438,541.2230000000002,538.286,0.0
53776.0,STARLINK-4708,PAYLOAD,2023-01-07 20:52:13,15.08829572,0.0002086,53.2195,72.4097,10.602,349.5016,4.1593e-05,3.74e-06,0.0,0 STARLINK-4708,1 53776U 22111D   23007.86959922  .00000374  00000-0  41593-4 0  9997,2 53776  53.2195  72.4097 0002086  10.6020 349.5016 15.08829572 18171,6917.911999999998,95.438,541.22,538.3340000000002,0.0
53776.0,STARLINK-4708,PAYLOAD,2023-01-08 03:13:47,15.08817419,0.0001984,53.2185,71.2192,40.7072,319.4068,-7.569e-05,-1.492e-05,0.0,0 STARLINK-4708,1 53776U 22111D   23008.13457656 -.00001492  00000-0 -75690-4 0  9994,2 53776  53.2185  71.2192 0001984  40.7072 319.4068 15.08817419 18215,6917.949000000001,95.439,541.187,538.442,0.0
53776.0,STARLINK-4708,PAYLOAD,2023-01-08 11:10:42,15.08827025,0.0002055,53.2182,69.733,42.3985,317.7165,-1.6847e-05,-5.56e-06,0.0,0 STARLINK-4708,1 53776U 22111D   23008.46577201 -.00000556  00000-0 -16847-4 0  9998,2 53776  53.2182  69.7330 0002055  42.3985 317.7165 15.08827025 18267,6917.92,95.438,541.207,538.363,0.0
53776.0,STARLINK-4708,PAYLOAD,2023-01-08 20:43:01,15.08834257,0.0002447,53.2182,67.9485,36.2301,323.8857,8.6654e-05,1.091e-05,0.0,0 STARLINK-4708,1 53776U 22111D   23008.86320756  .00001091  00000-0  86654-4 0  9999,2 53776  53.2182  67.9485 0002447  36.2301 323.8857 15.08834257 19416,6917.898,95.438,541.456,538.07,0.0
53776.0,STARLINK-4708,PAYLOAD,2023-01-09 03:04:33,15.08840519,0.0002573,53.2173,66.7586,36.5073,323.6095,8.732899999999999e-06,-1.49e-06,0.0,0 STARLINK-4708,1 53776U 22111D   23009.12816658 -.00000149  00000-0  87329-5 0  9995,2 53776  53.2173  66.7586 0002573  36.5073 323.6095 15.08840519 18367,6917.879,95.438,541.524,537.964,0.0
53776.0,STARLINK-4708,PAYLOAD,2023-01-09 12:36:51,15.08846305,0.0002586,53.2169,64.972,34.2267,325.8892,8.476399999999999e-05,1.061e-05,0.0,0 STARLINK-4708,1 53776U 22111D   23009.52559854  .00001061  00000-0  84764-4 0  9993,2 53776  53.2169  64.9720 0002586  34.2267 325.8892 15.08846305 19512,6917.861,95.437,541.515,537.937,0.0
53776.0,STARLINK-4708,PAYLOAD,2023-01-10 07:41:30,15.08830782,0.0002503,53.2188,61.4068,30.4308,329.6829,0.00016146,2.282e-05,0.0,0 STARLINK-4708,1 53776U 22111D   23010.32048697  .00002282  00000-0  16146-3 0  9995,2 53776  53.2188  61.4068 0002503  30.4308 329.6829 15.08830782 18549,6917.9090000000015,95.438,541.505,538.0419999999998,0.0
53776.0,STARLINK-4708,PAYLOAD,2023-01-10 12:27:38,15.08847719,0.000241,53.2201,60.5131,31.8174,328.2963,0.0001099,1.462e-05,0.0,0 STARLINK-4708,1 53776U 22111D   23010.51919770  .00001462  00000-0  10990-3 0  9995,2 53776  53.2201  60.5131 0002410  31.8174 328.2963 15.08847719 18574,6917.857,95.437,541.389,538.055,0.0
53776.0,STARLINK-4708,PAYLOAD,2023-01-11 12:18:26,15.08841601,0.0002105,53.2193,56.0543,38.8532,321.2612,-4.0822e-05,-9.38e-06,0.0,0 STARLINK-4708,1 53776U 22111D   23011.51280717 -.00000938  00000-0 -40822-4 0  9995,2 53776  53.2193  56.0543 0002105  38.8532 321.2612 15.08841601 18722,6917.875,95.437,541.197,538.284,0.0
53776.0,STARLINK-4708,PAYLOAD,2023-01-11 20:15:22,15.08836168,0.000225,53.2198,54.5676,33.5391,326.5743,-1.7337e-05,-5.64e-06,0.0,0 STARLINK-4708,1 53776U 22111D   23011.84401000 -.00000564  00000-0 -17337-4 0  9991,2 53776  53.2198  54.5676 0002250  33.5391 326.5743 15.08836168 19864,6917.892,95.438,541.314,538.201,0.0
53776.0,STARLINK-4708,PAYLOAD,2023-01-12 20:06:08,15.08846004,0.0002155,53.2206,50.1085,37.686,322.4283,-8.779400000000001e-06,-4.28e-06,0.0,0 STARLINK-4708,1 53776U 22111D   23012.83760296 -.00000428  00000-0 -87794-5 0  9990,2 53776  53.2206  50.1085 0002155  37.6860 322.4283 15.08846004 20013,6917.861999999999,95.437,541.2180000000002,538.236,0.0
53776.0,STARLINK-4708,PAYLOAD,2023-01-12 23:16:55,15.08831079,0.0002094,53.2183,49.5141,49.2633,310.8540000000001,7.9452e-05,9.76e-06,0.0,0 STARLINK-4708,1 53776U 22111D   23012.97009193  .00000976  00000-0  79452-4 0  9994,2 53776  53.2183  49.5141 0002094  49.2633 310.8540 15.08831079 18943,6917.908,95.438,541.221,538.3240000000002,0.0
53776.0,STARLINK-4708,PAYLOAD,2023-01-13 12:00:00,15.08840635,0.0001979,53.219,47.13399999999999,49.9339,310.1827,4.0509e-05,3.57e-06,0.0,0 STARLINK-4708,1 53776U 22111D   23013.50000898  .00000357  00000-0  40509-4 0  9991,2 53776  53.2190  47.1340 0001979  49.9339 310.1827 15.08840635 20118,6917.878000000001,95.438,541.112,538.374,0.0
53776.0,STARLINK-4708,PAYLOAD,2023-01-14 18:12:20,15.08839713,0.0001943,53.2195,41.4827,49.9218,310.1944,-3.8634e-05,-9.03e-06,0.0,0 STARLINK-4708,1 53776U 22111D   23014.75857407 -.00000903  00000-0 -38634-4 0  9990,2 53776  53.2195  41.4827 0001943  49.9218 310.1944 15.08839713 19211,6917.880999999999,95.438,541.09,538.4019999999999,0.0
53776.0,STARLINK-4708,PAYLOAD,2023-01-15 02:09:17,15.088266199999998,0.0001786,53.2192,39.9987,64.1535,295.9641,-1.6709000000000002e-05,-5.54e-06,0.0,0 STARLINK-4708,1 53776U 22111D   23015.08978524 -.00000554  00000-0 -16709-4 0  9992,2 53776  53.2192  39.9987 0001786  64.1535 295.9641 15.08826620 19265,6917.920999999999,95.438,541.0219999999999,538.5509999999999,0.0
53776.0,STARLINK-4708,PAYLOAD,2023-01-15 11:41:35,15.08844733,0.0002099,53.219,38.2181,73.0945,287.0278,1.9057e-05,1.5e-07,0.0,0 STARLINK-4708,1 53776U 22111D   23015.48721443  .00000015  00000-0  19057-4 0  9991,2 53776  53.2190  38.2181 0002099  73.0945 287.0278 15.08844733 19323,6917.866,95.437,541.183,538.279,0.0
53776.0,STARLINK-4708,PAYLOAD,2023-01-15 18:03:07,15.08841802,0.0001801,53.2174,37.0245,59.1547,300.9622,1.4268e-05,-6.1e-07,0.0,0 STARLINK-4708,1 53776U 22111D   23015.75217396 -.00000061  00000-0  14268-4 0  9999,2 53776  53.2174  37.0245 0001801  59.1547 300.9622 15.08841802 20454,6917.875,95.437,540.986,538.494,0.0
53776.0,STARLINK-4708,PAYLOAD,2023-01-16 11:32:20,15.08864113,0.0001643,53.2204,33.7543,72.3798,287.7373,0.00020877,3.038e-05,0.0,0 STARLINK-4708,1 53776U 22111D   23016.48079162  .00003038  00000-0  20877-3 0  9995,2 53776  53.2204  33.7543 0001643  72.3798 287.7373 15.08864113 19476,6917.807,95.436,540.808,538.535,0.0
53776.0,STARLINK-4708,PAYLOAD,2023-01-16 17:53:56,15.08823524,0.0001648,53.2206,32.565,78.7966,281.3211,-0.00019573,-3.4e-05,0.0,0 STARLINK-4708,1 53776U 22111D   23016.74578937 -.00003400  00000-0 -19573-3 0  9994,2 53776  53.2206  32.5650 0001648  78.7966 281.3211 15.08823524 20605,6917.931,95.439,540.936,538.656,0.0
53776.0,STARLINK-4708,PAYLOAD,2023-01-17 01:50:53,15.08810715,0.0001896999999999,53.2233,31.0809,96.8072,263.3136,-0.00017509,-3.071e-05,0.0,0 STARLINK-4708,1 53776U 22111D   23017.07700273 -.00003071  00000-0 -17509-3 0  9992,2 53776  53.2233  31.0809 0001897  96.8072 263.3136 15.08810715 19567,6917.97,95.439,541.1469999999999,538.523,0.0
53776.0,STARLINK-4708,PAYLOAD,2023-01-17 09:47:48,15.08818273,0.0001705,53.2217,29.5918,78.3497,281.7686,-0.00017225,-3.027e-05,0.0,0 STARLINK-4708,1 53776U 22111D   23017.40820323 -.00003027  00000-0 -17225-3 0  9994,2 53776  53.2217  29.5918 0001705  78.3497 281.7686 15.08818273 20705,6917.946999999999,95.439,540.991,538.632,0.0
53776.0,STARLINK-4708,PAYLOAD,2023-01-17 17:44:43,15.08830483,0.0001949,53.2214,28.1051,87.5791,272.5425,3.0646e-06,-2.39e-06,0.0,0 STARLINK-4708,1 53776U 22111D   23017.73939313 -.00000239  00000-0  30646-5 0  9995,2 53776  53.2214  28.1051 0001949  87.5791 272.5425 15.08830483 19663,6917.909000000001,95.438,541.123,538.4259999999999,0.0
53776.0,STARLINK-4708,PAYLOAD,2023-01-18 08:03:09,15.08863495,0.0001539,53.2207,25.4291,93.6826,266.4343,2.7277e-05,1.46e-06,0.0,0 STARLINK-4708,1 53776U 22111D   23018.33553079  .00000146  00000-0  27277-4 0  9994,2 53776  53.2207  25.4291 0001539  93.6826 266.4343 15.08863495 19753,6917.809,95.436,540.738,538.609,0.0
53776.0,STARLINK-4708,PAYLOAD,2023-01-19 06:18:34,15.08832502,0.0001618,53.2208,21.2667,93.191,266.9268,0.00032794,4.934e-05,0.0,0 STARLINK-4708,1 53776U 22111D   23019.26290490  .00004934  00000-0  32794-3 0  9990,2 53776  53.2208  21.2667 0001618  93.1910 266.9268 15.08832502 19893,6917.903,95.438,540.888,538.649,0.0
53776.0,STARLINK-4708,PAYLOAD,2023-01-19 09:29:20,15.08844045,0.0001602,53.2206,20.6705,104.6776,255.4394,0.00033626,5.068e-05,0.0,0 STARLINK-4708,1 53776U 22111D   23019.39537731  .00005068  00000-0  33626-3 0  9990,2 53776  53.2206  20.6705 0001602 104.6776 255.4394 15.08844045 19919,6917.868,95.437,540.841,538.625,0.0
53776.0,STARLINK-4708,PAYLOAD,2023-01-19 17:26:17,15.08833634,0.0001325,53.2212,19.1849,91.6554,268.459,6.3772e-05,7.27e-06,0.0,0 STARLINK-4708,1 53776U 22111D   23019.72659229  .00000727  00000-0  63772-4 0  9997,2 53776  53.2212  19.1849 0001325  91.6554 268.4590 15.08833634 19968,6917.9,95.438,540.681,538.8480000000001,0.0
53776.0,STARLINK-4708,PAYLOAD,2023-01-20 06:09:22,15.08845961,0.0001421,53.2203,16.8071,88.6375,271.478,-5.857e-05,-1.22e-05,0.0,0 STARLINK-4708,1 53776U 22111D   23020.25650862 -.00001220  00000-0 -58570-4 0  9992,2 53776  53.2203  16.8071 0001421  88.6375 271.4780 15.08845961 20045,6917.861999999999,95.437,540.71,538.744,0.0
53776.0,STARLINK-4708,PAYLOAD,2023-01-21 06:00:08,15.088544,0.0001523,53.2215,12.3445,100.3706,259.7458,5.4424e-05,5.79e-06,0.0,0 STARLINK-4708,1 53776U 22111D   23021.25009816  .00000579  00000-0  54424-4 0  9998,2 53776  53.2215  12.3445 0001523 100.3706 259.7458 15.08854400 20192,6917.835999999999,95.437,540.755,538.648,0.0
